{"type":"FeatureCollection","features":[{"type":"Feature","properties":{"name":"DAS Mahakam","role":"context_geometry_not_evidence"},"geometry":{"type":"Polygon","coordinates":[[[116.24260097800006,1.8310009819604818],[116.21600097400004,1.8460009669438606],[116.20604467200006,1.8375945639531677],[116.18420100200001,1.8376010039531763],[116.17512729300007,1.8158784759772062],[116.17180097100002,1.7950009680002585],[116.16760099000008,1.7926009870029234],[116.16863063100004,1.782337785014309],[116.1587960490001,1.767942265030183],[116.15680754400012,1.751741265048123],[116.16148226100006,1.7453185100552335],[116.14378753900007,1.7176877110858129],[116.14728992900007,1.7087306190957008],[116.14213946500001,1.7022140371029737],[116.1392009860001,1.6842010001229195],[116.13063822900004,1.6788856001287926],[116.13149757200006,1.6703458291382312],[116.12760096800001,1.6618009791477097],[116.11420095000005,1.6550009831552794],[116.10832526700005,1.6645252331446696],[116.1016937190001,1.667583589141265],[116.0973101940001,1.6629223501464794],[116.08918487500011,1.6617368981477612],[116.0710009930001,1.6518009881587543],[116.06586621500003,1.6305839831822924],[116.06219521500009,1.6284270621846666],[116.05519073700009,1.6307758531820686],[116.05093569900008,1.622274976191528],[116.04420095700004,1.6184009891957867],[116.03614438200009,1.6071535692082157],[116.03600096700006,1.6000009752161795],[116.0421661590001,1.5921915492248373],[116.04500097000005,1.5800009942383415],[116.04029973900005,1.5691337092504436],[116.04000097500011,1.5576009732632294],[116.02451893800004,1.5515814052698802],[116.0224300660001,1.541995623280476],[116.01260095800001,1.536000965287164],[116.00760096300006,1.5260009752982209],[115.98821227100007,1.527734187296347],[115.98500096800002,1.5318009832918662],[115.97244617300011,1.5317449622918853],[115.96277430000009,1.5218882863028294],[115.95500099600008,1.4918009613362058],[115.91066431400007,1.478504048350943],[115.89100098600012,1.4592009763724174],[115.85246081600009,1.437044823396976],[115.8480876310001,1.4238743284116044],[115.84786373300007,1.409957661427048],[115.85345028500001,1.4075197904298147],[115.85311669300006,1.4009823224370366],[115.8312910520001,1.378933799461547],[115.82680100200002,1.366800962474993],[115.82970028000011,1.3621180764801701],[115.8267660780001,1.3549130334881936],[115.81104181700005,1.3449439384993134],[115.80523091700002,1.3343318945110645],[115.80730685100004,1.3251708495212564],[115.80311208100011,1.3172552475300419],[115.80675458400003,1.3117105945362637],[115.7940781870001,1.3085262715397517],[115.78609739500007,1.2967059715528881],[115.77285476600002,1.2881806625623728],[115.77098416100011,1.267751364585098],[115.76078308700005,1.2604338235932522],[115.7229022460001,1.262140968591382],[115.71340096000006,1.2760009745759155],[115.7100605600001,1.2747666085773053],[115.70920097800003,1.2650009975881606],[115.70024829000012,1.2651946505879488],[115.69378874000006,1.2687833375839332],[115.68500095600007,1.2826009975686086],[115.66180098000007,1.2918009745583698],[115.65538009900001,1.2880660785625042],[115.64567464400011,1.288353628562217],[115.64086392800004,1.2831385325679865],[115.62478385800011,1.2870058275636935],[115.61148452300006,1.2814217145699345],[115.58340096500001,1.2826009975686083],[115.56760096600009,1.2968009695527973],[115.55680096100002,1.311800955536138],[115.56100648500001,1.325138710521303],[115.55760097500001,1.3326009495130429],[115.5637647010001,1.3347614945106185],[115.5448654590001,1.3460435264980712],[115.54813791700008,1.3631301014790713],[115.54680097100004,1.3750009514658716],[115.54238586400005,1.3839858634559272],[115.53430468300009,1.3881616114512518],[115.54364308800007,1.4037620824339683],[115.54420095700006,1.4100009784270398],[115.56077254099999,1.4217454814139834],[115.56086357000004,1.4351576803991035],[115.55500096100003,1.4410009963925896],[115.56654964900008,1.4436096733897128],[115.5742602150001,1.456350106375533],[115.59141155000009,1.4613747453699466],[115.60292071700007,1.4757118963540508],[115.61286214000006,1.4793107683500348],[115.61680096400005,1.4860009533426313],[115.61410137000007,1.50595059532049],[115.60680097300008,1.5142009843113144],[115.58840096000007,1.514200984311315],[115.58284183500008,1.5241172343003258],[115.58000099600007,1.5384009462845112],[115.5719454660001,1.5419944782804962],[115.54678445600007,1.578912417239558],[115.54600095700005,1.5926009992243848],[115.53920096200012,1.5918009862252736],[115.5311693000001,1.5977693232186843],[115.51840096700005,1.621001003192919],[115.52461108000011,1.6375273291746257],[115.51730991500004,1.6443177441671144],[115.5142009850001,1.6550009831552792],[115.50116685600005,1.6606668281489527],[115.49246157400013,1.6690266551397472],[115.484200954,1.6692009551394988],[115.48302731600006,1.6764272791314767],[115.46500098700005,1.6876009681191257],[115.45840096400002,1.682600973124693],[115.45194564000006,1.6911535611151869],[115.44500205100007,1.7145326410892923],[115.45100098800003,1.7168009850868193],[115.44957271900012,1.7194992580837671],[115.44219637700007,1.7203964060828287],[115.43600100200001,1.7260009630766022],[115.41780672800009,1.7244673500782899],[115.40100097700007,1.7342009520675767],[115.39052764700011,1.7339462120678253],[115.3776399940001,1.7389187870623162],[115.36840099100003,1.7684009650297048],[115.36380284200004,1.766488151031816],[115.36091432,1.7754063330219616],[115.3363612910001,1.7921612850034225],[115.32468628800007,1.813086542980244],[115.3119725700001,1.8245674109676118],[115.28343740300011,1.8283538239633956],[115.26920098100005,1.8160009959770593],[115.26292920900006,1.814342392978848],[115.24680095900011,1.8292009809624254],[115.2376009820001,1.8276009539642164],[115.23652601200001,1.8234470129688338],[115.219560074,1.8221457529702694],[115.20848804500008,1.8167899619762105],[115.17920094700003,1.8276009539642168],[115.16383427400001,1.8272043739646546],[115.15656397600003,1.825411518966611],[115.15303851200008,1.8207878299717415],[115.12760096800002,1.8142009959790515],[115.12765036400005,1.7977870639972138],[115.14592236700003,1.7883082680077198],[115.15192649000004,1.7771352070200537],[115.15157502200009,1.761047939037863],[115.16002675200004,1.750178479049837],[115.15766202000009,1.739902597061228],[115.14504119100002,1.7223312740806782],[115.14600098100006,1.7176010000859165],[115.1518009900001,1.7176010000859168],[115.1534264390001,1.7112198570929549],[115.1628040080001,1.7044222571005188],[115.1649584050001,1.6970867881086624],[115.1491842280001,1.691085976115273],[115.14748340800008,1.6734234001348054],[115.15350689000002,1.6670266971419558],[115.15328868100005,1.6614247511481308],[115.1500773350001,1.6484728591625104],[115.14507167900001,1.6489528031619263],[115.13986063800007,1.6434956621680175],[115.13540881200004,1.627293703185945],[115.15000098900008,1.6068009712086293],[115.14992720200009,1.6023747632135315],[115.14354049200007,1.5955020112211646],[115.14500099500003,1.5850009892328445],[115.13635498400004,1.5836084442343392],[115.13128971800006,1.5748580632440485],[115.12038201100006,1.5768528892418483],[115.11304046800002,1.5542228262669249],[115.10294562200012,1.5570863652637998],[115.0892830030001,1.5394628452832995],[115.06600099800005,1.5418009742807062],[115.06042882500005,1.549913379271728],[115.0504647570001,1.5539047792672842],[115.04156031000002,1.5634676102566947],[115.02583184300012,1.563143565257073],[115.02077823700007,1.566010270253854],[115.01185583100003,1.5599908542605796],[115.00840097700006,1.5626009682576614],[114.98952310300002,1.5580351552627185],[114.97939378300009,1.5498038302718755],[114.97920096000007,1.5442009552780736],[114.96420342900001,1.5404356092821954],[114.95704968700011,1.5352092112880258],[114.94447573100003,1.5339262262894393],[114.93920099700007,1.5276010022964992],[114.93078624200007,1.5249369712994105],[114.91600096200013,1.5376009922854128],[114.90760099900001,1.5268009882973594],[114.90147066100009,1.5348729832883932],[114.88969256100006,1.5320159332915988],[114.87500095400003,1.5392009592836267],[114.86375632400008,1.537781544285219],[114.85180097900002,1.569200991250321],[114.85500097200008,1.581000982237265],[114.8505582890001,1.5898916382274333],[114.8434009550001,1.5934009532234974],[114.84806104000005,1.6058740192096699],[114.83563911400005,1.6151390901994014],[114.835000992,1.6218009571920418],[114.82618549000006,1.6248544461886492],[114.81290059500007,1.6221319111916421],[114.79576977700005,1.6287024221843496],[114.78280969700006,1.6254477881880127],[114.768478339,1.6302865531826438],[114.72957977300008,1.6157935541986574],[114.72100097000009,1.6310009941818675],[114.70873748100007,1.6376132911745234],[114.69457627200006,1.6330082031796451],[114.68967663600006,1.620586662193366],[114.67141044100003,1.602985040212883],[114.65855629800002,1.6005208202155654],[114.65259957800004,1.5909988502261425],[114.63870413100005,1.5889020882284768],[114.62340098600009,1.5784009672401085],[114.61195047800004,1.5753635572434725],[114.61180096900011,1.5584009872623092],[114.60702280800002,1.5531729232681297],[114.60140641100008,1.5326698092908606],[114.61070010700008,1.5251444542991794],[114.61612286900004,1.5156821713097368],[114.6069832410001,1.5003105283267364],[114.60679627300011,1.4883612053400133],[114.59524957400004,1.4807737483484233],[114.59569707500007,1.4710841873592222],[114.5869548840001,1.4474589543854286],[114.57454681700005,1.4406088603930236],[114.57106336700008,1.431486247403168],[114.56615603900002,1.4276343294074263],[114.56070449700007,1.4350522223992015],[114.53620209200005,1.43842071239549],[114.52728974200011,1.4428400763905738],[114.51109055400002,1.4631997203679845],[114.49963027400008,1.4638044323672619],[114.48560240600011,1.47374815035624],[114.4738591790001,1.4750441623548252],[114.46395388700013,1.48501971734369],[114.45508720600003,1.4867838983417574],[114.42672890400002,1.5047705593218108],[114.4234266740001,1.5102119383157404],[114.41562416900001,1.511343060314509],[114.40891278900006,1.5226752783019626],[114.38820028800001,1.5185183323065057],[114.38593666600002,1.516460830308833],[114.3887711210001,1.5139316443116686],[114.3878163710001,1.5014155443255146],[114.38052675300003,1.4941203463336181],[114.3693401920001,1.49312936433474],[114.36147405400004,1.4886567523396514],[114.35495491400002,1.4909991473371011],[114.30893469400007,1.4720899013580742],[114.29967349100002,1.4579284243737667],[114.27149142400003,1.451442961380994],[114.25021995500003,1.452108592380237],[114.23990527100011,1.4476868623851513],[114.23748197600003,1.4395278323942098],[114.22402414500004,1.4253805224099254],[114.22420096400003,1.4168009744194476],[114.20448682200005,1.4097151384273572],[114.19680094700004,1.3976009474407893],[114.17760098000008,1.3950009924436488],[114.1551059620001,1.3757312814650726],[114.16243909000002,1.3577186784851112],[114.15839077900013,1.3476780844962295],[114.164013952,1.3373365305077356],[114.15839062300006,1.3161549365312866],[114.16229349900004,1.3101068345380091],[114.14920097600009,1.2926009875574749],[114.1630142360001,1.284614265566347],[114.17061103100002,1.266004401587071],[114.16664432800007,1.2601626875935352],[114.15379431200006,1.2545697895997716],[114.15010520400006,1.2431953176124075],[114.13532787200006,1.2215931016364217],[114.1386526770001,1.2152526906434642],[114.14420098000005,1.2142009726446794],[114.14869780700008,1.1994644496610525],[114.14420098000005,1.1868009546751914],[114.13916559100005,1.1883938536734218],[114.13371965100009,1.183242316679118],[114.13048755500007,1.1705144096932865],[114.12500095400003,1.1660009606983082],[114.1275924470001,1.1567362777086225],[114.1209112360001,1.14889073671733],[114.10547712000005,1.1453797677212498],[114.09381576400006,1.1574982687078001],[114.08724920300006,1.1591580187059372],[114.08098521900001,1.1476167117187677],[114.05244795300007,1.1284377677401596],[114.0424074440001,1.1348277847330155],[114.03840094800013,1.1460009807205438],[114.01654706800002,1.1371205137304434],[114.00840097600008,1.1442009787225695],[114.00231377600005,1.1404670187267667],[113.99569347900001,1.142202588724834],[113.98816301500005,1.139129102728231],[113.98426732000007,1.134172102733775],[113.98679885700005,1.12754671574109],[113.98239691000003,1.1219452027473449],[113.9710009690001,1.1218009577474897],[113.96350633500003,1.112762276757555],[113.95996947900005,1.1024255567691033],[113.9620031720001,1.090001002782895],[113.94699882500005,1.0610735458151443],[113.90180099000008,1.0592010008172295],[113.89341380200005,1.0533533298237396],[113.88900111200007,1.045810949832119],[113.89260095400005,1.019200979861766],[113.90898527400009,1.0123832428693755],[113.9141086730001,1.002157087880767],[113.91299960800006,0.9736413329125326],[113.90992828800006,0.9672983419196193],[113.89541342500003,0.9573302339307198],[113.89600098100004,0.946800945942471],[113.88436174600008,0.9374881619528787],[113.88255442100001,0.9282437169631529],[113.87255859300001,0.9185790999739398],[113.87284222000005,0.9044804809896873],[113.8776397150001,0.897458740997452],[113.87182617200006,0.8894042960064773],[113.8782104500001,0.8789425310181388],[113.88672014800011,0.8723460480255026],[113.89309164000008,0.8740614440235915],[113.90013482500002,0.8604898710387426],[113.90930288000004,0.8521503470480484],[113.92226127200001,0.8482807330523594],[113.92589804300009,0.8423589700589381],[113.91286418200002,0.8231282760803531],[113.91080856300005,0.8138421520907563],[113.89438249300008,0.8016632791043784],[113.88169082700006,0.7859147081219316],[113.87341308600004,0.7825927721256069],[113.88523024400001,0.7601930291506072],[113.89443373600011,0.754312430157201],[113.89612790600006,0.7334183671805107],[113.89379977400007,0.7271385331875254],[113.87782855500006,0.7182313321974523],[113.86805426000001,0.6999381252178911],[113.84107106300007,0.6976252252204583],[113.83915186600007,0.6809440162390764],[113.83421394700008,0.6735712522472926],[113.83690505600009,0.662954860259153],[113.84818705100008,0.6521674972711924],[113.87893622800004,0.6526541662706539],[113.89932818900002,0.6450273242791872],[113.9049487850001,0.6469387112770383],[113.92206466300001,0.6433941182809746],[113.94147823600008,0.6533898382698221],[113.95103066100013,0.6486795762750718],[113.96186275200012,0.6483966772753988],[113.96553754900003,0.6570644362657269],[113.97680097900003,0.6610009662613472],[114.00340098100003,0.6418009982827794],[114.02714508400004,0.6714470942496786],[114.05500096100002,0.6700009702512661],[114.05657881000002,0.6762121442443302],[114.07180094700004,0.6850009552345542],[114.07368174400007,0.6898890612290439],[114.08231856300006,0.6902650032286191],[114.09000098700005,0.69920098721866],[114.10159732000011,0.6925945762260167],[114.11920100500005,0.6968009462213757],[114.12666452400003,0.693214720225387],[114.12760096800002,0.6884009832307372],[114.14324989700005,0.680187426239897],[114.15704757200001,0.6783195412419983],[114.16500097500011,0.6634009472586476],[114.16100096700006,0.6550009842680827],[114.16293968900004,0.650339683273247],[114.17677811500005,0.6404001412843211],[114.17920689000005,0.6182748253090401],[114.17517393600008,0.6065854533220544],[114.15432463300012,0.6023693893267679],[114.1461380070001,0.595138007334886],[114.17947588800007,0.5809472073507234],[114.1950010060001,0.58600097834512],[114.19349552200003,0.5751193533572416],[114.20180100200002,0.5410009623953556],[114.21131371800006,0.5371137193996799],[114.2184009550001,0.5300009844076373],[114.22680097800003,0.5310009714065208],[114.24495629100011,0.5218079024167548],[114.25095044700004,0.5316848234057256],[114.26673977400003,0.5289046144088553],[114.2772950210001,0.5354914674014783],[114.28971141200009,0.5383762153982954],[114.29798521100008,0.53361567940358],[114.3097935290001,0.5335978174035971],[114.32180094700004,0.5410009623953553],[114.32532042800007,0.5373043513994674],[114.3499062410001,0.5318034124056192],[114.35033001500007,0.5398722083966269],[114.35950523100007,0.5538967303809618],[114.36100095500001,0.5626009693712108],[114.38680100500005,0.5634009833703416],[114.39069869800005,0.5544367033803671],[114.41193789500005,0.5505342963847032],[114.42143631500005,0.5440546193919527],[114.43260607700006,0.5417761243945067],[114.46063381400006,0.5571657933772943],[114.46340096000006,0.5634009833703416],[114.4709048200001,0.5628378573709105],[114.48073852300001,0.5707620103621314],[114.48920095000005,0.5718009463609338],[114.49615374000007,0.5670392983662598],[114.52149773800011,0.5620801353717734],[114.52979620400004,0.5708436443619822],[114.53420096600007,0.5710009933618203],[114.53470055200012,0.5763880603558124],[114.54600095700005,0.5860009783451195],[114.5481491380001,0.598995417330574],[114.54174020700009,0.6081408523203625],[114.53920042900006,0.6209542663060689],[114.54359280000007,0.6298908012960702],[114.5688736830001,0.6262109723001914],[114.586000979,0.6334009762921748],[114.6015211130001,0.6339998722914699],[114.60860495500003,0.6452970332788983],[114.61589191000009,0.6484115522754056],[114.62000095900011,0.6468009942771797],[114.62706863100004,0.6573333222654104],[114.63680100400006,0.6610009662613471],[114.64005332400008,0.672148652248862],[114.6518009900001,0.6750009652456602],[114.65515662700012,0.691975186226746],[114.66920095700003,0.7034009682139865],[114.67776123500006,0.7026788202148242],[114.69175054200002,0.7084060792084083],[114.69998967100001,0.7020591342155168],[114.71689449900009,0.7018303732157775],[114.73757429400008,0.713427707202781],[114.75049456700003,0.7263073641884134],[114.7691908060001,0.7317410671823426],[114.78325415800009,0.7292878881851002],[114.79298436300007,0.7366151631769211],[114.79420095700006,0.741800963171126],[114.80496558100003,0.7405015011725876],[114.81386437000003,0.7513832131604449],[114.81904126700009,0.7534094711581704],[114.82340097400002,0.7510010001608405],[114.82723373200008,0.7549374471564468],[114.833400965,0.7550009481563804],[114.84301501200002,0.7454128101671045],[114.8619514720001,0.7378418341755271],[114.87920099500002,0.7460010041664463],[114.89023463000001,0.7588173481521128],[114.90857004200006,0.7668689661431828],[114.91323538000007,0.7748720021342067],[114.91333479100001,0.7834041401247316],[114.92248453100002,0.773244928136058],[114.94100099800005,0.7734009621358537],[114.9461076670001,0.7454264861670935],[114.97284706200004,0.7447919191678384],[114.97900726700004,0.738998390174253],[114.99054183300007,0.7139282652022473],[114.99006204000013,0.7022495542152919],[114.99640767100006,0.685423379234069],[115.0103402420001,0.607544320321012],[115.02180099500004,0.58500099134623],[115.0314129960001,0.5738199303586906],[115.03955528200002,0.5537612763810701],[115.04917233700007,0.540031242396413],[115.06736840400002,0.5231683994152531],[115.08256236600006,0.4976852714437437],[115.08760675000008,0.48420790745878256],[115.08753216500008,0.47498121746906535],[115.07928219800009,0.4742824704698621],[115.07760095600008,0.4692009684755366],[115.08729079999999,0.464957301480309],[115.09220596400007,0.4540896714924555],[115.09867351300012,0.4520648404947096],[115.10963942900003,0.44109740250697865],[115.11600095000006,0.4476009604996877],[115.13293471700001,0.43127652351791956],[115.13536470600002,0.4247961555252058],[115.12840098200002,0.37420099858169675],[115.11959157400007,0.37223694258392725],[115.10840100000009,0.35840099959940314],[115.08267715800002,0.34597476261327803],[115.07803197900012,0.3329699106277837],[115.05939872200008,0.32158312764051555],[115.04760098400006,0.29920095166551375],[115.03680098100007,0.30180096666258655],[115.03628931700005,0.3154710936473413],[115.02340096300009,0.33100098363001995],[114.99760097300009,0.3276009556337656],[114.99000096300004,0.3350009916255238],[114.95566079200012,0.32000947764227405],[114.95218173500008,0.3221564216398829],[114.94949746700003,0.33229919262853036],[114.94139342100003,0.33413997962647723],[114.91708990400002,0.32651207363501933],[114.90055992700002,0.3162420146464896],[114.89105812000003,0.3025438456618224],[114.88340097600009,0.2976009836673225],[114.88586121100003,0.28549410968085165],[114.8839756860001,0.28063922968625526],[114.8713628470001,0.27484080169276737],[114.86217350400011,0.2761918136912929],[114.85125085200004,0.2531474757170047],[114.83658684500007,0.24926314372136152],[114.8301791870001,0.2401776657314647],[114.81920099200012,0.23840099473350643],[114.82510673400009,0.22957336274337709],[114.83260095100003,0.22760099174555043],[114.82746973300004,0.21000440676524765],[114.82944705900002,0.19214304478518168],[114.82724740000003,0.19327485378393144],[114.81265149200011,0.18073722179800597],[114.80423518500002,0.17821377180079],[114.80100095300007,0.17260098380705827],[114.77918925400002,0.16101268382003892],[114.76136003300009,0.1456419388371851],[114.75846073600007,0.13575520184825243],[114.77341118300002,0.12106277586467745],[114.77078425000002,0.10835104087888167],[114.74840098700008,0.10000097688821728],[114.74125006300007,0.09079688589847805],[114.73228342100003,0.08870864790082748],[114.7253527050001,0.0805720959099445],[114.71019240700002,0.08320954790703272],[114.70759019600008,0.07764266891325339],[114.70954176900011,0.07160627491995736],[114.71922007400009,0.04966496194454566],[114.73180097400007,0.0468009709476912],[114.7373853150001,0.03186343296445083],[114.74337756400008,0.03496556596096118],[114.7741066320001,0.037609158957983994],[114.79208992700002,0.030809914965570947],[114.79663986900006,0.018403472979469596],[114.7960181730001,0.0008360459991355315],[114.805582145,-0.006446399992761481],[114.81600099800006,-0.00499904199432902],[114.83057929500002,-0.016280932981748805],[114.83180762300003,-0.038371106957048165],[114.83721898200007,-0.04399432395072996],[114.86033615000008,-0.023534203973606133],[114.87118462300009,-0.020182704977391067],[114.87582047800004,-0.01497321998320809],[114.88002528300001,-0.021471580975932807],[114.89680099500004,-0.029999017966416176],[114.89823590900005,-0.04421505095056212],[114.90439447900009,-0.046870986947571705],[114.90795981100007,-0.05847750993455314],[114.90317619200005,-0.08443504190552614],[114.90739010100003,-0.09145697389763903],[114.91760098900009,-0.09239900089661889],[114.92125892400009,-0.10181046388609719],[114.92292257400005,-0.1154770208708515],[114.91600096200013,-0.13579905084810615],[114.92987802000005,-0.1595370168215747],[114.92840099300007,-0.17419904380520376],[114.92253634000008,-0.18106284379748952],[114.92641738800012,-0.18954414678800344],[114.91713880200008,-0.20331953477260778],[114.92388738400007,-0.2184187087557339],[114.92357572400012,-0.2269890687461589],[114.92840099300007,-0.22819900474482602],[114.94410133100008,-0.24547719672549345],[114.9547334440001,-0.24185104372954228],[114.9614539470001,-0.265524408703113],[114.97626322500003,-0.2675409557008263],[114.98371588600003,-0.27238664069546864],[115.0034667000001,-0.2722911726955002],[115.01500099900011,-0.2641990177045887],[115.01555500100004,-0.2571744647124203],[115.02483158400003,-0.2499608207204776],[115.02243605000001,-0.23837112273345848],[115.0281898820001,-0.22160507875222116],[115.021637596,-0.21831432175587157],[115.02057499600006,-0.20939726576583456],[115.0270421240001,-0.20307157577291157],[115.03464699200003,-0.20748982776796596],[115.04260098900012,-0.20159900177457563],[115.0400270560001,-0.19925346977720326],[115.04099322500008,-0.19304532778408975],[115.04834904500002,-0.18734564779047452],[115.05435543200008,-0.17537153380388065],[115.0500278820001,-0.1603736968206725],[115.05840098900002,-0.15159904983044983],[115.0700010060001,-0.1473990078351486],[115.08338047900008,-0.15437788182734757],[115.08920097400005,-0.15419900382757512],[115.10730551600011,-0.1450235738377698],[115.11914711400004,-0.14721264583535065],[115.13000094800009,-0.13419902384992907],[115.14087931900006,-0.14122085784204153],[115.14949888700005,-0.1367921738470131],[115.14501812700007,-0.1221983878633313],[115.1518033430001,-0.11579699187048134],[115.15311939600008,-0.10482331588275726],[115.16494474800004,-0.08659574490311864],[115.17180097100004,-0.09499901489372425],[115.18036303500004,-0.09405297089479706],[115.18414027100005,-0.08079598690959547],[115.19575493100002,-0.07499056791611543],[115.20587849900005,-0.07910014191150974],[115.21338582700002,-0.07238405291898906],[115.22788721600011,-0.07025217392141132],[115.24013761000005,-0.05771200893540777],[115.25179814900002,-0.055008468938475476],[115.26212188300009,-0.047147841947234786],[115.26941298900012,-0.04813240694613025],[115.27420097600009,-0.044199049950575636],[115.29405444000008,-0.05105844594285169],[115.28840611700002,-0.05907903293386359],[115.29180097600009,-0.07739901491341675],[115.29986576500005,-0.0817159429085592],[115.30828072700001,-0.08115884390922463],[115.31408011500004,-0.09617011289246838],[115.308400989,-0.1191990378667041],[115.28757270000006,-0.12707178885785353],[115.28579726700004,-0.1439840208389769],[115.27030532400012,-0.14332335583969658],[115.25601204400003,-0.1630927148176095],[115.26065368500008,-0.18174635379672818],[115.29697236700007,-0.20073470177554528],[115.29861546100005,-0.20904208076621064],[115.29680097100004,-0.21419900676045783],[115.28714045800007,-0.21819570175596598],[115.27719421700012,-0.21132628576371718],[115.26871239000002,-0.2121534977627718],[115.2604030340001,-0.20580876876985232],[115.25811339200003,-0.2144295617602228],[115.24912115800011,-0.2176725817565866],[115.24692530700007,-0.22548556074786272],[115.23924579200002,-0.2252667177480827],[115.23686853400011,-0.24581824272511618],[115.24540998300006,-0.25178459471844483],[115.25410092300001,-0.27072402069730217],[115.25172318600006,-0.2751337746923794],[115.2518908510001,-0.30114315066329317],[115.24255635100008,-0.3028682366613015],[115.23194458300009,-0.2970070136679135],[115.22003475500003,-0.3045396476594756],[115.2313618510001,-0.32284770063900087],[115.23336497800005,-0.34123424461848345],[115.23750000000007,-0.3458333326133608],[115.23724480700002,-0.3530370306052701],[115.23204398200005,-0.36048477659693845],[115.24450479200006,-0.3684296265880659],[115.2470850630001,-0.3803545805747245],[115.255560306,-0.38697639856734284],[115.2616179810001,-0.3862072215681866],[115.2607003050001,-0.3945976735588328],[115.24750000000007,-0.40916666554256537],[115.24750000000007,-0.41249999953884925],[115.25377685000001,-0.41192177653949236],[115.2641876150001,-0.43074042751843317],[115.26551597800007,-0.4377326815106314],[115.25916666600006,-0.44249999950527386],[115.25843167000006,-0.4480160584990899],[115.272864389,-0.45021335949669916],[115.27398814800006,-0.4543323704920743],[115.29063166200002,-0.4598525604858677],[115.29833333300009,-0.45749999948852127],[115.29596059200003,-0.4723199054719561],[115.30583333400011,-0.4849999994578117],[115.30471806000003,-0.48862454745378237],[115.29786870000011,-0.4911959444508746],[115.29750000000001,-0.49583333344568786],[115.30159111400008,-0.4967174054447201],[115.30144073200005,-0.5041672484363932],[115.3066508060001,-0.5106283604291653],[115.30206603000012,-0.5155651554236806],[115.2869031240001,-0.5191525934196246],[115.28361195400011,-0.5293676674082644],[115.27416666700005,-0.5324999994047563],[115.27751694600012,-0.5468120893887273],[115.28616848000001,-0.550164853384993],[115.28846325400002,-0.5541818883805005],[115.30995538600008,-0.5466743513889352],[115.31561323000007,-0.5474759743879766],[115.32262587800005,-0.5425052743935733],[115.32744699800003,-0.545438332390297],[115.34500000000003,-0.5449999993907978],[115.35833333400002,-0.5491666653861202],[115.36085817900005,-0.5538844003808636],[115.36652276100006,-0.5559406333785619],[115.37750000000007,-0.5733333333591109],[115.36959893700009,-0.5761547993559549],[115.36020878600006,-0.5853041843457348],[115.36572308400004,-0.5937381333363668],[115.35916314600003,-0.6073764793211244],[115.36638453800003,-0.6149000243127074],[115.3661311610001,-0.6286617292973685],[115.37750000000007,-0.6299999992958542],[115.37737409700001,-0.6396549212850914],[115.37252793700007,-0.6452115242788948],[115.37415225900008,-0.6526411882705647],[115.36272578600006,-0.6639740272578886],[115.3493546530001,-0.6661492802554898],[115.35061901200004,-0.6814524852384077],[115.3390335350001,-0.6959493842222263],[115.34583333400009,-0.7208333321944577],[115.32333333300005,-0.7274999991870302],[115.31082914900003,-0.7392117081739317],[115.32294387700006,-0.749094840162878],[115.3270621260001,-0.7581565161528149],[115.33726994400001,-0.7598375321509001],[115.33916666700009,-0.7683333321413894],[115.34833333300003,-0.7649999991451428],[115.35666666700003,-0.7674999991423198],[115.3569056990001,-0.7738771241352571],[115.36158786400006,-0.7728005081364918],[115.36295009199999,-0.7871178271204614],[115.36009366100006,-0.7927806821141553],[115.36475624400009,-0.792237910114781],[115.36833333400013,-0.7874999991200858],[115.36551978000011,-0.8025835801032263],[115.35262609300003,-0.8181269450858734],[115.35667415100012,-0.824084219079252],[115.35225376000005,-0.8340015010681915],[115.35603309600005,-0.8382678020633866],[115.35666666700003,-0.8491666660512426],[115.36166666600003,-0.8516666660485085],[115.35166666700002,-0.8658333330326679],[115.35442002500007,-0.8674633780308479],[115.35690597700011,-0.8627393090360943],[115.36083333300006,-0.862499999036353],[115.36037596400003,-0.8688474170293046],[115.36394346000009,-0.8731136820245212],[115.37406039400004,-0.8766774440205467],[115.3790403700001,-0.8649296560336789],[115.39409590900004,-0.8665372850318467],[115.40750000000004,-0.8633333320354526],[115.4076489050001,-0.868752609029419],[115.414224568,-0.8730261380245906],[115.42333333400006,-0.8699999990280124],[115.43135499100003,-0.8771196670200953],[115.44682950700009,-0.8794124830175033],[115.45298403700009,-0.874161309023384],[115.470013621,-0.8745027380230289],[115.47405483200009,-0.8708027480271189],[115.47994741700006,-0.8800085520168168],[115.48591324100006,-0.8713921320264689],[115.49471165000011,-0.8727541960249523],[115.51066666700001,-0.8649736900335996],[115.53166666700008,-0.8608333320382672],[115.53099008100004,-0.8711337100267453],[115.53912842900002,-0.8735338390240907],[115.54333333300006,-0.8833333320131128],[115.53251372200009,-0.8986789019960594],[115.53752366600007,-0.9048345629891567],[115.53593123000009,-0.9104110369829419],[115.56406935600012,-0.9336811569570134],[115.56500000000007,-0.9383333319517981],[115.57083333300011,-0.9366666649536761],[115.57500000000003,-0.939166665950879],[115.5762481490001,-0.9512520549373724],[115.58465079900009,-0.9624328769249708],[115.59445806000008,-0.9680649859186574],[115.60056484400003,-0.9667711179201119],[115.60666666600001,-0.9708333329155799],[115.60921131800002,-0.9781709319073915],[115.61993254800008,-0.977607800908042],[115.6200000000001,-0.991666665892349],[115.62416666700004,-0.9949999988886433],[115.61924812300002,-1.0009692178820144],[115.6200000000001,-1.009999998871923],[115.62666666700011,-1.0133333318681996],[115.62500000000011,-1.0191666658617644],[115.63166666600011,-1.0224999988580488],[115.63186353000005,-1.030604889848984],[115.65000000000008,-1.027499998852459],[115.65058000300006,-1.0405397248379322],[115.65579544300009,-1.0472106788305104],[115.65500000000009,-1.056666665819956],[115.66750000000002,-1.0499999988273818],[115.66630012000007,-1.0621729538137743],[115.68092412900012,-1.0650059188106642],[115.68416666600002,-1.0599999988162554],[115.69261455900005,-1.0650184528106448],[115.70037487000003,-1.0625179578134236],[115.71130718300005,-1.0761928157981726],[115.71583333400008,-1.094166665778211],[115.72750000000009,-1.0916666647809898],[115.73080470700006,-1.095665452776542],[115.7477717920001,-1.09925952377253],[115.74666666600001,-1.1116666657587033],[115.75324895300002,-1.1303187107379644],[115.76236820600002,-1.1374283117299675],[115.76583333300005,-1.1374999987299046],[115.77583333300004,-1.1233333327456665],[115.787860119,-1.1182767847513424],[115.80056418900004,-1.0988935537729456],[115.80833333400007,-1.0974999987744911],[115.81885211300006,-1.0880187777850077],[115.82416666600011,-1.0766666647976386],[115.83214361100009,-1.0781200347960571],[115.83389946600006,-1.0935201117789224],[115.84250000000009,-1.109166665761505],[115.85250000000008,-1.1108333327596378],[115.8552788070001,-1.1066660937642767],[115.870102126,-1.1010930427704462],[115.88301480400003,-1.1015564697699691],[115.88583333400005,-1.0966666657754376],[115.90388474100007,-1.100646746770995],[115.905541351,-1.111875474758512],[115.91180616600002,-1.1225896987464954],[115.90750000000003,-1.1399999987271372],[115.91626798400013,-1.1412320137257774],[115.92083333300003,-1.1533333317123293],[115.9278690110001,-1.1503690107156113],[115.935745375,-1.1394953727277375],[115.96416666600011,-1.1158333317540363],[115.98000000000002,-1.1124999987577806],[115.98471180500009,-1.1012969867702644],[115.98264815800009,-1.0870926017860583],[115.98975124400012,-1.0812774537925551],[116.01333333400011,-1.0808333317930279],[116.01275099300005,-1.0897076997831594],[116.01750000000004,-1.0924999987800468],[116.02743862700005,-1.0899974827828518],[116.03083333300002,-1.0924999987800468],[116.05166666700005,-1.0816666657921292],[116.07637220900006,-1.075842504798589],[116.0758333340001,-1.0824999987911341],[116.08916666700009,-1.0816666657921299],[116.0941719440001,-1.0850270367883619],[116.1008333330001,-1.0824999987911341],[116.10571992300004,-1.0866698827865358],[116.11666666700013,-1.082499998791134],[116.11871689600002,-1.086288818786931],[116.13255337400005,-1.0925152357800196],[116.1400000000001,-1.0883333317847357],[116.14750000000004,-1.0933333317791034],[116.18166666700007,-1.0966666657754376],[116.18660190000003,-1.1007822667708087],[116.20254730400005,-1.0991506417726296],[116.21229841300008,-1.1032243377681066],[116.21763384600001,-1.0970782897749212],[116.22416666600009,-1.0958333317763507],[116.23000000000002,-1.0849999987883974],[116.248333333,-1.0849999987883978],[116.25166666700012,-1.0724999988023094],[116.2652208730001,-1.0526745758243883],[116.27833333300009,-1.0516666648255188],[116.28743260100009,-1.0566822678199495],[116.29892046600004,-1.0537577618232157],[116.31825278100006,-1.0200525478607254],[116.32166666700004,-1.017499998863558],[116.33916666600011,-1.0208333328598962],[116.3604208060001,-0.9975541388858269],[116.37482416400006,-0.9914908298925887],[116.37666621100004,-0.9766887739090838],[116.386325025,-0.9675978099192197],[116.39808148600004,-0.9747168789112765],[116.41083333400002,-0.9699999989165458],[116.42194791400004,-0.9732524689128907],[116.43312686300011,-0.9691638739174422],[116.44000000000005,-0.9708333329155799],[116.43931031500006,-0.9588746639289264],[116.4467495250001,-0.9504800489382887],[116.47333333300004,-0.9491666649397368],[116.47912790600002,-0.943584549946003],[116.47792751200008,-0.9376598719525694],[116.47356763700009,-0.9269197399645434],[116.4603802040001,-0.9142036259787175],[116.45833333300004,-0.9041666659899501],[116.4543830890001,-0.9042657789897887],[116.45296658900008,-0.8780172370190644],[116.45916666700009,-0.8716666650261314],[116.46319069000005,-0.8736376350239347],[116.47103274200003,-0.8710351520268907],[116.47467767500007,-0.8608611030382469],[116.48441824600002,-0.8660489640324294],[116.49697138300007,-0.8576296170418146],[116.50666666600011,-0.8558333330438217],[116.50934788100005,-0.8501812130501244],[116.51751342700004,-0.8450539190558521],[116.51255434000008,-0.8347075640673841],[116.51484792000008,-0.8273479190756078],[116.5250000000001,-0.8233333320800431],[116.53135755900007,-0.8257105440774061],[116.53516918300012,-0.8184344880855468],[116.54377988700001,-0.81943206108445],[116.55473374100008,-0.8092982590956792],[116.56333333300006,-0.8099999990949466],[116.57245371400005,-0.8303424500722779],[116.57137697300004,-0.8466138430541063],[116.56756826900005,-0.8513831640488073],[116.57000000000005,-0.8674999990308253],[116.59083333400008,-0.8633333320354527],[116.59159603700006,-0.8686414900295527],[116.58833333300002,-0.8724999990252368],[116.59984646300006,-0.8797962000171023],[116.60798961700004,-0.8800251430168138],[116.61500000000002,-0.8799999990168456],[116.61942306900005,-0.873186768024479],[116.62854208500005,-0.8719284540258577],[116.63931618200003,-0.8625833730362781],[116.65201895900009,-0.8364755410654371],[116.6516666670001,-0.8241666660791066],[116.67119039100011,-0.8056290330997975],[116.67772596100008,-0.8066127870986877],[116.67946478700003,-0.8022398461035982],[116.68668112700006,-0.8010890021049034],[116.68936137000001,-0.7966947021098199],[116.69913811600009,-0.8042515761013437],[116.70717507400002,-0.802594076103257],[116.71113141200011,-0.8062263420991488],[116.7248808920001,-0.7991740801070077],[116.73166666700001,-0.8024999991033169],[116.73468436200007,-0.8068180790985262],[116.73338250400002,-0.8197445000840712],[116.73583333300009,-0.8258333320772845],[116.74448859300001,-0.8248126810784309],[116.75381118800011,-0.8104698100944371],[116.76338261800005,-0.8035844381021169],[116.77166666700009,-0.8024999991033165],[116.77404293000006,-0.8073524890979309],[116.7702037050001,-0.8152696220890453],[116.77257926200004,-0.8250089340782337],[116.78204275300003,-0.8213245980823395],[116.79176041900007,-0.822441839081078],[116.79952554600004,-0.8173544910867315],[116.79936498200004,-0.8105243080943494],[116.80328232100008,-0.808326628096819],[116.81043117700007,-0.8121093020926049],[116.81387436200008,-0.80749546809774],[116.8258333330001,-0.8099999990949461],[116.8251049150001,-0.8152809480890422],[116.83160332100012,-0.8230107090804526],[116.85015502300008,-0.8272885040756595],[116.8594858150001,-0.8327245190695797],[116.87250000000007,-0.8333333320688999],[116.87500000000011,-0.844999999055934],[116.88407156300003,-0.8444238070565155],[116.88447670100005,-0.854695994045086],[116.89083333300005,-0.8658333330326679],[116.89750000000005,-0.8583333320410561],[116.90173045800007,-0.8724559850253223],[116.90747844600003,-0.8775710310195776],[116.91069649800012,-0.8750548150223748],[116.91729396400001,-0.8834285760130699],[116.91416666700002,-0.901666665992732],[116.9214794830001,-0.9052355979887624],[116.92671534200008,-0.9166789669759258],[116.93510341900004,-0.9158198789769196],[116.93925499600005,-0.9086369479849264],[116.95083537500011,-0.9034553939907286],[116.95226888100002,-0.8933946540019029],[116.96419352300008,-0.8907344330049303],[116.97269375000008,-0.880027081016868],[116.97750000000009,-0.8824999990140473],[116.98416666700007,-0.8808333330158938],[116.9939258060001,-0.8861653920099571],[117.00490637900009,-0.8682254820300062],[117.010831262,-0.8513420140488014],[117.01083333300006,-0.794166665112624],[117.022015021,-0.7962742791102869],[117.0331998040001,-0.7783476141302896],[117.03266660700001,-0.7679522831418101],[117.04960342400011,-0.758747530152108],[117.05690024400008,-0.7378636911754524],[117.06483966400005,-0.7386162131745784],[117.07327448400008,-0.7302196611839872],[117.08844541100005,-0.7225140711925706],[117.09019975100011,-0.7179942431976363],[117.09633621600005,-0.7160900601997033],[117.10634939600003,-0.7233503981916739],[117.11416439100003,-0.7155354022003652],[117.13061087500012,-0.7140190592020418],[117.12956110000006,-0.7186847291968114],[117.14110863100007,-0.7296490511846268],[117.14122527200004,-0.7393303151737883],[117.14554101600004,-0.7402634491727141],[117.1512710410001,-0.732054787181948],[117.15057119100005,-0.7267184271878805],[117.16115642800003,-0.7215570311936697],[117.17410366000001,-0.7287304981856089],[117.18320171399999,-0.7415027671713926],[117.19000000000007,-0.7399999991730408],[117.1936339140001,-0.7438680831687093],[117.20333333300005,-0.7449999991674701],[117.20716834900009,-0.7388150941743795],[117.21451599700003,-0.739498252173621],[117.21833333300005,-0.7349999991786303],[117.22583333300008,-0.736666666176751],[117.22833333300001,-0.7458333321665664],[117.23809896500006,-0.7408181161721399],[117.24890474000007,-0.7420609191707909],[117.2624047400001,-0.753260919158239],[117.26940474000003,-0.7667609191432032],[117.26840474000005,-0.8014609191044592],[117.27100411500008,-0.8047287051008165],[117.28213461500002,-0.791468943115645],[117.28860722800005,-0.7224198651926884],[117.3017925260001,-0.6864623272327838],[117.30291875500006,-0.6747493392458953],[117.2988771150001,-0.6370630392879573],[117.28750000000002,-0.6049999993237835],[117.27890815400008,-0.5992098493302198],[117.28168375400003,-0.5950594913349025],[117.27729531700002,-0.589806898340719],[117.27963087300009,-0.5774250083546046],[117.30772749300002,-0.5715704573611053],[117.31016967400001,-0.5654601493679711],[117.33169084300006,-0.5793800413523976],[117.344988789,-0.5803855103512783],[117.35092968200001,-0.5795938053521229],[117.34870311000009,-0.5748818323574206],[117.36911326700012,-0.5689636313640125],[117.38749247400006,-0.5498428243853504],[117.41254202900006,-0.5394455163969515],[117.41459771200005,-0.5319074724053843],[117.43280681600002,-0.5106208424292279],[117.43892405600002,-0.49677133644463706],[117.43940240300005,-0.4799149864635257],[117.45473943600007,-0.45961708448615923],[117.45388961300011,-0.44653868150074694],[117.45100394700013,-0.44761121849957136],[117.44302219500003,-0.4370336065114025],[117.43900494000002,-0.4392566135088793],[117.42437199100006,-0.4313294895177482],[117.42829533200006,-0.4266761265229866],[117.43555146300002,-0.4274571855220938],[117.4382126710001,-0.42145529752882493],[117.43087572900002,-0.41531671753563376],[117.43256195100003,-0.405471437546667],[117.42844588900006,-0.3982910515546879],[117.43092910300003,-0.39362972355989234],[117.43724159500006,-0.3912356555625753],[117.4358492340001,-0.38027073457481764],[117.44613060000005,-0.3795854085756214],[117.45809853200002,-0.3871964955670815],[117.46443796900009,-0.3745973735811713],[117.46307115200011,-0.3640217775929984],[117.45296438900004,-0.3552908526027248],[117.44724729000008,-0.32483903263675695],[117.45175965900012,-0.30350475766066065],[117.44292501300004,-0.2977622206670607],[117.43647591100013,-0.3078658896557631],[117.40244105300009,-0.3045081906595286],[117.3911469740001,-0.3113762116518655],[117.3835158400001,-0.3122919476508192],[117.37725831000012,-0.3067975306569514],[117.36657472200011,-0.3081711356554287],[117.35512802200003,-0.3045081906595286],[117.34688169800006,-0.29110154867449844],[117.3458333330001,-0.28249999968411993],[117.34075729500013,-0.2824718446841721],[117.33783657800006,-0.28569549068052036],[117.32722907900006,-0.2872415806787919],[117.32353327400006,-0.30844541165513745],[117.31873407900002,-0.31425229664860876],[117.31583333300013,-0.3258333336356653],[117.30666666700006,-0.3249999996366055],[117.30197417900001,-0.31964265964257793],[117.29173914900002,-0.3194570366428201],[117.28000000000009,-0.3141666666486875],[117.28416666700002,-0.28666666667946233],[117.26833333300011,-0.28749999967852613],[117.2674130700001,-0.27091751369707195],[117.25321351700008,-0.2666825747017729],[117.2477059030001,-0.2557162127140614],[117.24083333300008,-0.2516666667185804],[117.24583333400007,-0.22749999974564017],[117.26252216200011,-0.18408252179412504],[117.26261297600003,-0.17306441680649026],[117.26840096700006,-0.16319900781749566],[117.26702628700002,-0.1576820178236627],[117.2742009760001,-0.12239903186315236],[117.26776067600008,-0.12023930586552217],[117.25891779300001,-0.10844506587870849],[117.25274818800006,-0.1080727778791235],[117.24612150100008,-0.09353894589535748],[117.23606093100011,-0.09333986089559498],[117.23600095500001,-0.08079904290963456],[117.22811150400003,-0.08287841690730322],[117.22190081400004,-0.09272755589623005],[117.19188031700003,-0.08803265390152001],[117.18035663700003,-0.09860830188968017],[117.17674338600011,-0.11291564787371101],[117.16594531200009,-0.11581836787046405],[117.15778266400002,-0.11404339187240801],[117.14648103700004,-0.09569002589297074],[117.13865193900007,-0.08903499090037419],[117.1452688480001,-0.07529125291575615],[117.15635954000004,-0.06639661692570986],[117.15097685600007,-0.04255521895239322],[117.14364028500007,-0.03807328595733417],[117.14180099900013,-0.02999901796641617],[117.12928737800007,-0.026048264970825134],[117.12829498400005,-0.013011949985405495],[117.12161644200013,-0.005661945993630055],[117.12260097300009,0.01840096697945848],[117.12600100000009,0.01840096697945848],[117.12825421000002,0.03878915195666484],[117.13982064900006,0.0557812919376843],[117.1518009900001,0.06100100293185568],[117.15488458700008,0.08438433290570213],[117.14920097600007,0.09500098289379799],[117.14500099400004,0.095000982893798],[117.14210512000011,0.09978362188849405],[117.14434675300004,0.10870008987852885],[117.1374876220001,0.12114695286458362],[117.13892914000009,0.14867148683380468],[117.14840096200011,0.15920096582206913],[117.14734811900009,0.16658873881376685],[117.14000867900005,0.17184549280787428],[117.1392009860001,0.17840099280055438],[117.1599126330001,0.1997184357767922],[117.17706779100003,0.2117008337633615],[117.18180096200001,0.2118009927632642],[117.1790190910001,0.2708742986972061],[117.17650549900009,0.2765552886908662],[117.19713047300002,0.29652850666852415],[117.19600099300011,0.30920100165439957],[117.20276935800007,0.31721056864543407],[117.20474595300006,0.3277020316336974],[117.21489407200009,0.33963818662034034],[117.21575534100009,0.3453457006139595],[117.21260100600011,0.35260099160583],[117.1774787600001,0.3509188336077091],[117.16793530900009,0.35793530659987866],[117.15920096600009,0.37000095858637994],[117.14840096200011,0.3692010035872917],[117.14115141700007,0.37435731258155025],[117.13680100400006,0.3942009805593445],[117.12651838100011,0.4029500295495832],[117.12863804000006,0.41047648154115357],[117.11827338800005,0.41206903653938093],[117.11053451500004,0.42479904152518144],[117.10752345200002,0.438321634510012],[117.09707991400002,0.43856449050975066],[117.10082893700007,0.4450720675025124],[117.09916365000002,0.45934920548658015],[117.09333185400011,0.4647095504805922],[117.09260100100005,0.4742009634699657],[117.08395688100008,0.4736102394705983],[117.08027287300003,0.4640752484812846],[117.07724173200006,0.4636714524817706],[117.07002094500002,0.483837437459182],[117.05730653100012,0.49231427644972237],[117.06624133500009,0.5047483524358305],[117.06564795400003,0.5120212114276934],[117.06003141500004,0.5108233594290672],[117.05409124700009,0.5193532204195621],[117.04584027100009,0.5133096014262939],[117.04190298600008,0.514227264425237],[117.0415643560001,0.52051995041823],[117.04614175400003,0.5276628284102823],[117.04552519700009,0.5546123343801294],[117.03735232100006,0.5554421283791708],[117.03110868400006,0.5456377183901976],[117.02443476400005,0.5496411343857092],[117.01436830700003,0.5468756593888017],[117.00841443600007,0.5525049463825007],[117.0096578030001,0.5596009443745747],[117.00263859900006,0.5567968003777375],[116.99894693200008,0.5597303453744196],[117.00187274600012,0.5670324823662581],[117.00088931200003,0.5761326853560877],[116.9984009870001,0.5800009963518088],[116.99420100400003,0.580000996351809],[116.9928928490001,0.5872245603436899],[116.9969212960001,0.5937038073364626],[117.01312693500007,0.5906085773399177],[117.01678179700002,0.6004952763289073],[117.01212897600008,0.6112064363168953],[117.00535488400011,0.6072785993213103],[116.99263150900003,0.610842327317351],[116.99024715200004,0.6219315823049505],[116.99343257300006,0.6255538643008847],[116.98677976500005,0.6359028882893202],[116.9925127680001,0.645431972278675],[116.98694021500012,0.6536875372694837],[116.99263348600006,0.6692959602520733],[116.99930859500012,0.6743874412464124],[117.002853318,0.6962710752219686],[117.00120509800001,0.7165044011993716],[117.01022333800006,0.7320731761820166],[117.00761440500003,0.7416977591712278],[117.01260095800002,0.7450009581675436],[117.02490506000005,0.7453085571671969],[117.03392234400008,0.7416025061713392],[117.03743590600004,0.7476341041646063],[117.04277836300002,0.7413084571716771],[117.05216970200001,0.7445657901680636],[117.05557789200009,0.7387117191745567],[117.06039540600013,0.7382097211751247],[117.0658634020001,0.7500158801619294],[117.05905013000006,0.7544074831570748],[117.06350557500002,0.7640328771462968],[117.072758926,0.7667078441433621],[117.09398917500003,0.7851583111227077],[117.10340100600001,0.7850009791229661],[117.1050009720001,0.7892009611182328],[117.10268902400003,0.8014670001045562],[117.10604625800012,0.8193388680846156],[117.10144764800009,0.8274888410755339],[117.10892541300008,0.8386396770630719],[117.10840100100008,0.8442009670568797],[117.09840095000003,0.8492009630512748],[117.09254086300007,0.8450765440559105],[117.08000099700007,0.8476009960530664],[117.06916893200004,0.872369015025474],[117.06231827400005,0.8747776680227468],[117.06100100300011,0.8860009900102555],[117.0492009520001,0.8826009620141013],[117.04444972600004,0.9133455769798253],[117.0509039850001,0.9197994439725552],[117.05427178900004,0.931517417959525],[117.05000096600007,0.9410009969489334],[117.06018698100003,0.9453293099440998],[117.06429827300008,0.9508435369379862],[117.0687569800001,0.9508856679379394],[117.06663895600002,0.958779419929116],[117.07849821100002,0.962902903924484],[117.07879665600001,0.9698289409168281],[117.0871889660001,0.9753305279106997],[117.0878158060001,0.9820956769031433],[117.09261407900009,0.9840414159010095],[117.09095504700008,0.9943155438895122],[117.09731459900003,0.9940940818897638],[117.0953402140001,1.014800354866674],[117.09810735100008,1.0224423108582061],[117.09550214500008,1.0267232398534234],[117.10024089900004,1.0362493308427974],[117.09501540800011,1.040832603837669],[117.09919877200004,1.0431413788351456],[117.095768398,1.0516957358255856],[117.11513857600006,1.0782633247960034],[117.12260097300009,1.1018009767697732],[117.13062866200005,1.1103732407602491],[117.15980825100009,1.1277054017409345],[117.15840095300008,1.1310009947372928],[117.15223490400003,1.1295729967388801],[117.14920780900002,1.132083106736111],[117.15721429600002,1.1470208137194775],[117.15260791100002,1.155080550710481],[117.16972544100008,1.1901767576714053],[117.17340099800005,1.2050009946548925],[117.19100099800005,1.2034009676566566],[117.19943496600001,1.2379896866181832],[117.20585459100003,1.236266940620119],[117.20958755299999,1.2404612646154884],[117.21000099100002,1.2860009655648221],[117.20260270200004,1.286242409564544],[117.19585554600008,1.2924571125576498],[117.18963059700002,1.2911408135591045],[117.18429637200008,1.3053912005432573],[117.17840099300008,1.3084009865399346],[117.17187626200008,1.306035888542524],[117.16242271300008,1.3084138625398942],[117.16085558200007,1.313788940533894],[117.1566400710001,1.3160076625314612],[117.14812775800011,1.3078372765405177],[117.11738734400001,1.2902153485601198],[117.1038116410001,1.2884600705620455],[117.10122527300007,1.3079584035403722],[117.1062862880001,1.3180947565291197],[117.10124153300002,1.3315258305142028],[117.09420096900008,1.334200976511255],[117.0554188770001,1.3335273675119792],[117.04403379700013,1.3470993534969262],[117.03340095300007,1.3534010034898822],[117.02709765800012,1.3476996014962037],[116.99100095000007,1.3468009814972335],[116.98760098200013,1.3518009764916699],[116.99847824200005,1.3727290354684314],[116.98999131200004,1.3818449704583045],[116.99403897000003,1.3889630034503881],[116.99420100400003,1.3976009474407889],[116.98564127500003,1.4078866734293698],[116.98680096900013,1.4142009604223493],[116.96080115500003,1.4185055754175921],[116.95871210400004,1.4278662264071629],[116.96223337700008,1.4405838613930129],[116.96991757500007,1.4432267133901056],[116.97257933100002,1.4509797383815046],[117.00185217,1.454155797377956],[116.9984009870001,1.4610009773703874],[116.96873340700006,1.4780051053514947],[116.97904774500013,1.5062042573202326],[116.97420096400003,1.5118010023140322],[116.97757034300004,1.5146439793108661],[116.97648787100002,1.5190967543059153],[116.96054077600003,1.5273407722967682],[116.95604635100005,1.5449562662771952],[116.94027388000005,1.5578766472628744],[116.92501177100006,1.5807573622375142],[116.91557757600003,1.5860775832316276],[116.8992009760001,1.6026009902132772],[116.89420098100003,1.6026009902132772],[116.87600100100009,1.5860009772317176],[116.85760098700007,1.5950009802217404],[116.84306519500001,1.5899039072273915],[116.83680099200002,1.584200976233705],[116.81420099700006,1.589200972228154],[116.81080872000008,1.5852175332325327],[116.80572265200011,1.5860014952317025],[116.79646067400006,1.580290626238039],[116.78760099400007,1.5792009812392136],[116.77150348300006,1.5973283022191234],[116.76000100400006,1.6018009762141678],[116.76326910000012,1.6106969082043305],[116.75680095000007,1.6210010031929192],[116.74902684800009,1.6184501361957684],[116.74286905800012,1.6096049322055734],[116.73156880900002,1.611047679203944],[116.72208414000012,1.6058350722096773],[116.69944108600008,1.6094131732057528],[116.69447204700009,1.6143571232002711],[116.6942009920001,1.621001003192919],[116.68975378500011,1.6212147751926567],[116.684201002,1.626800952186458],[116.67760098000008,1.626800952186458],[116.66124762600009,1.623152399190516],[116.63610006600004,1.596823890219682],[116.62073360800002,1.5999372822162405],[116.61487231400008,1.5933815352235066],[116.60137776800002,1.594575096222221],[116.59269217200006,1.5999133142162696],[116.5852961510001,1.5981057892182575],[116.57429632600008,1.5896875082276152],[116.5693169760001,1.5905842642266386],[116.56420099800003,1.5850009892328443],[116.54680097100004,1.5860009772317178],[116.54294660500013,1.596346583220234],[116.53498261200002,1.5983192042180454],[116.53185458800009,1.6091614442060114],[116.53305028300008,1.6145055852001102],[116.54920834100007,1.6325402721801379],[116.54729401000009,1.6447585011665915],[116.54137251200008,1.6463725291648066],[116.53912797300006,1.6526729161578475],[116.52818685900002,1.654767727155517],[116.51774483400006,1.6703444731382382],[116.50396254600001,1.6717593961367128],[116.49100095000004,1.6668009741421517],[116.48430645300006,1.6722791561361063],[116.48575155200002,1.678406353129316],[116.47807665800008,1.689185893117392],[116.48464245900003,1.6929586491131552],[116.48500096800002,1.7000009991053793],[116.47759844200006,1.7162517800873802],[116.48569982200003,1.7196405300836217],[116.47624634700004,1.7200863620831561],[116.47496439400003,1.7260041560765935],[116.4564239980001,1.722473424080487],[116.44533970300006,1.7242692680785094],[116.43528118000006,1.7200450070832265],[116.39543193700003,1.721912945081131],[116.39368250000008,1.7312480220707926],[116.39923297400004,1.7419070550590179],[116.39328233300012,1.746204174054246],[116.3963622440001,1.7511285450488299],[116.39420098000005,1.75840097504075],[116.38313376100008,1.759376644039641],[116.37956151300011,1.7626246420360432],[116.36647911900003,1.7556158700438154],[116.36094745700008,1.7594934940395768],[116.35600096000007,1.7576009610416516],[116.35341311300009,1.7626294280360768],[116.3540275380001,1.77626082602098],[116.34782261700003,1.7834909380129784],[116.35000097700002,1.80340099099095],[116.34025570000007,1.8071868209868034],[116.33468253200012,1.8146824889785063],[116.32286439100005,1.8178506199749669],[116.30919978500003,1.8317607949596566],[116.2985112440001,1.8249923679671392],[116.27896515300007,1.8301522709614282],[116.27197623000008,1.8280209709637267],[116.26181257400003,1.8317481349596074],[116.24260097800006,1.8310009819604818]]]}}]}